{
  "version": 0.6,
  "generator": "Overpass API 0.7.55.6 486819c8",
  "osm3s": {
    "timestamp_osm_base": "2019-04-17T23:13:03Z",
    "timestamp_areas_base": "2019-04-17T22:08:02Z",
    "copyright": "The data included in this document is from www.openstreetmap.org. The data is made available under ODbL."
  },
  "elements": [
    {
      "type": "node",
      "id": 368061395,
      "lat": 40.8786111,
      "lon": -73.9172222,
      "tags": {
        "addr:state": "NY",
        "ele": "48",
        "gnis:county_name": "Bronx",
        "gnis:feature_id": "2377155",
        "gnis:import_uuid": "57871b70-0100-4405-bb30-88b2e001a944",
        "gnis:reviewed": "no",
        "name": "Knolls Shopping Center",
        "shop": "mall",
        "source": "USGS Geonames"
      }
    },
    {
      "type": "node",
      "id": 1272608999,
      "lat": 40.7420513,
      "lon": -74.0048973,
      "tags": {
        "addr:city": "New York",
        "addr:country": "US",
        "addr:housenumber": "75",
        "addr:postcode": "10011",
        "addr:state": "NY",
        "addr:street": "9th Avenue",
        "ele": "4",
        "gnis:county_name": "New York",
        "gnis:feature_id": "2083015",
        "gnis:import_uuid": "57871b70-0100-4405-bb30-88b2e001a944",
        "gnis:reviewed": "no",
        "name": "Chelsea Market",
        "name:he": "מתחם אוכל נחמד",
        "name:zh": "雀兒喜市場",
        "opening_hours": "Mo-Sa 07:00-02:00; Su 08:00-20:00",
        "shop": "mall",
        "source": "USGS Geonames",
        "wikidata": "Q5090112"
      }
    },
    {
      "type": "node",
      "id": 2700052000,
      "lat": 40.7594957,
      "lon": -73.8334906,
      "tags": {
        "name": "Flushing Mall",
        "shop": "mall"
      }
    },
    {
      "type": "node",
      "id": 4338609364,
      "lat": 40.7684026,
      "lon": -73.9828296,
      "tags": {
        "addr:city": "New York",
        "addr:housenumber": "10",
        "addr:state": "NY",
        "addr:street": "Columbus Circle",
        "name": "The Shops at Columbus Circle",
        "phone": "+1 212-823-6300",
        "shop": "mall",
        "website": "http://www.theshopsatcolumbuscircle.com/",
        "wikidata": "Q7763938"
      }
    },
    {
      "type": "node",
      "id": 4792119699,
      "lat": 40.713912,
      "lon": -73.9943702,
      "tags": {
        "addr:city": "New York",
        "addr:housenumber": "88",
        "addr:postcode": "10002",
        "addr:state": "NY",
        "addr:street": "East Broadway",
        "name": "east broadway mall",
        "shop": "mall"
      }
    },
    {
      "type": "node",
      "id": 4792165595,
      "lat": 40.713618,
      "lon": -73.9942127,
      "tags": {
        "shop": "mall"
      }
    },
    {
      "type": "node",
      "id": 5140040331,
      "lat": 40.6912654,
      "lon": -73.982912,
      "tags": {
        "addr:city": "Brooklyn",
        "addr:housenumber": "445",
        "addr:postcode": "11201",
        "addr:state": "NY",
        "addr:street": "Albee Square West",
        "name": "City Point",
        "opening_hours": "Mo-Su 07:00-11:59",
        "phone": "718-673-8800",
        "shop": "mall",
        "website": "https://citypointbrooklyn.com/"
      }
    },
    {
      "type": "way",
      "id": 158715016,
      "nodes": [
        1708707082,
        1708707066,
        1708707065,
        1708707085,
        1708707082
      ],
      "tags": {
        "name": "Woodrow Shopping Plaza",
        "shop": "mall",
        "wheelchair": "yes"
      }
    },
    {
      "type": "way",
      "id": 240971219,
      "nodes": [
        2486519639,
        2486519642,
        2486519554,
        2486519599,
        2486519562,
        2486519602,
        2486519639
      ],
      "tags": {
        "building": "yes",
        "name": "Rego Park Center",
        "shop": "mall"
      }
    },
    {
      "type": "way",
      "id": 240971222,
      "nodes": [
        2486519623,
        2569979031,
        2486519634,
        2486519604,
        2486519617,
        2486519646,
        2569979051,
        2569979035,
        2486519573,
        2486519561,
        2486519570,
        2486519636,
        2486519595,
        2486519643,
        2486519623
      ],
      "tags": {
        "building": "yes",
        "name": "Rego Park Center",
        "shop": "mall"
      }
    },
    {
      "type": "way",
      "id": 247258892,
      "nodes": [
        2541780887,
        2541780900,
        2541780842,
        3144821009,
        3144821008,
        3144821007,
        2541780779,
        2541780795,
        2541780871,
        2541780828,
        2541780854,
        2541780852,
        2541780857,
        2541780862,
        2541780883,
        2541780929,
        2541780887
      ],
      "tags": {
        "building": "yes",
        "height": "15.6",
        "nycdoitt:bin": "3397396",
        "shop": "mall"
      }
    },
    {
      "type": "way",
      "id": 248504870,
      "nodes": [
        2552820723,
        2552820726,
        2552820744,
        2552820741,
        2552820735,
        2552820723
      ],
      "tags": {
        "addr:city": "Brooklyn",
        "addr:postcode": "11224",
        "addr:state": "NY",
        "addr:street": "Neptune Avenue",
        "building": "yes",
        "height": "11.7",
        "nycdoitt:bin": "3196579",
        "shop": "mall"
      }
    },
    {
      "type": "way",
      "id": 248504871,
      "nodes": [
        2552820694,
        2552820708,
        2552820710,
        2552820723,
        2552820735,
        2552820729,
        2552820702,
        2552820694
      ],
      "tags": {
        "addr:city": "Brooklyn",
        "addr:postcode": "11224",
        "addr:state": "NY",
        "addr:street": "Neptune Avenue",
        "building": "yes",
        "height": "4.6",
        "nycdoitt:bin": "3196578",
        "shop": "mall"
      }
    },
    {
      "type": "way",
      "id": 250026584,
      "nodes": [
        2565496042,
        5487939664,
        2565496032,
        4968350396,
        4968350397,
        4968350398,
        4968350399,
        2565495812,
        2565495761,
        2565495741,
        2565495744,
        2565495738,
        2565495746,
        2565495754,
        2565495757,
        2565495750,
        5487939663,
        2565495806,
        2565495799,
        2565495791,
        2565495779,
        2565495777,
        2565495769,
        2565495773,
        2565495783,
        2565495787,
        2565495795,
        2565495804,
        2565495809,
        2565495766,
        2565495854,
        2565496480,
        2565496444,
        2565496524,
        2565496555,
        2565496808,
        2565496510,
        2565496042
      ],
      "tags": {
        "addr:housenumber": "5100",
        "addr:postcode": "11234",
        "addr:street": "Kings Plaza",
        "building": "commercial",
        "height": "21.6",
        "name": "Kings Plaza Shopping Center",
        "nycdoitt:bin": "3326830",
        "opening_hours": "Mo-Fr 10:00-21:30; Sa 10:00-22:00; Su 11:00-20:00",
        "operator": "Macerich",
        "phone": "+1 718-253-6842",
        "shop": "mall",
        "website": "http://www.kingsplazaonline.com",
        "wikidata": "Q6413001",
        "wikipedia": "en:Kings Plaza Shopping Center"
      }
    },
    {
      "type": "way",
      "id": 250970404,
      "nodes": [
        2572934505,
        2572934430,
        2572933935,
        2572933847,
        2572932888,
        2572931217,
        2572931210,
        2572931429,
        2572931449,
        2572931466,
        2572933782,
        2572933879,
        2572933914,
        2572928931,
        2572934509,
        2572934654,
        2572934652,
        2572934505
      ],
      "tags": {
        "addr:city": "Middle Village",
        "addr:housenumber": "6626",
        "addr:postcode": "11379",
        "addr:street": "Metropolitan Avenue",
        "building": "retail",
        "height": "22.3",
        "layer": "1",
        "name": "Metro Mall",
        "nycdoitt:bin": "4443103",
        "shop": "mall"
      }
    },
    {
      "type": "way",
      "id": 250984737,
      "nodes": [
        2573007410,
        2573007419,
        2573007689,
        2573007742,
        2573007336,
        2573007316,
        2573007276,
        2573007239,
        2573007307,
        2573007321,
        2573007410
      ],
      "tags": {
        "addr:city": "Brooklyn",
        "addr:housenumber": "625",
        "addr:postcode": "11217",
        "addr:state": "NY",
        "addr:street": "Atlantic Avenue",
        "building": "yes",
        "height": "17.6",
        "name": "Atlantic Center",
        "nycdoitt:bin": "3057470",
        "operator": "Forest City",
        "shop": "mall"
      }
    },
    {
      "type": "way",
      "id": 264685191,
      "nodes": [
        2703449822,
        2703449852,
        2703449854,
        2703449849,
        2703449764,
        2703449818,
        2703449822
      ],
      "tags": {
        "addr:city": "New York",
        "addr:housenumber": "100",
        "addr:postcode": "10001",
        "addr:state": "NY",
        "addr:street": "West 33rd Street",
        "building": "commercial",
        "building:levels": "12",
        "height": "58.2",
        "indoor": "yes",
        "name": "Manhattan Mall",
        "nycdoitt:bin": "1015190",
        "operator": "Vornado",
        "shop": "mall",
        "website": "http://www.manhattanmallny.com/",
        "wikidata": "Q3285824",
        "wikipedia": "en:Manhattan Mall"
      }
    },
    {
      "type": "way",
      "id": 271596000,
      "nodes": [
        2765482692,
        2765482618,
        2765482612,
        2765482470,
        2765482345,
        2765482241,
        2765482050,
        2765482064,
        2765482022,
        6257190610,
        2765482011,
        6256829756,
        6256829758,
        6257190478,
        6256829755,
        6257190616,
        6257190611,
        6257190593,
        2765482270,
        2765482398,
        6257070493,
        6257070521,
        6257190475,
        6257070511,
        2765482520,
        2765482530,
        2765482547,
        2765482572,
        2765482600,
        6257190477,
        2765482665,
        2765482552,
        2765482538,
        2765482532,
        2765482523,
        2765482481,
        6257190469,
        2765482777,
        2765482727,
        2765482886,
        2765482899,
        2765482988,
        2765483098,
        2765483210,
        2765483221,
        2765482752,
        2765482692
      ],
      "tags": {
        "addr:housenumber": "517",
        "addr:postcode": "10035",
        "addr:street": "East 117th Street",
        "building": "retail",
        "height": "31.9",
        "name": "East River Plaza",
        "owner": "Brookfield Asset Management",
        "shop": "mall",
        "start_date": "2009",
        "website": "http://www.eastriverplaza.com",
        "wheelchair": "yes",
        "wikidata": "Q20857913",
        "wikipedia": "en:East River Plaza"
      }
    },
    {
      "type": "way",
      "id": 275300098,
      "nodes": [
        2799381746,
        2799381747,
        2799381748,
        2799381749,
        2799381750,
        2799381752,
        2799381753,
        2799381742,
        2799381741,
        2799381739,
        2799381296,
        2799381273,
        2799381280,
        2799381287,
        2799381286,
        2799381701,
        2799381703,
        2799381725,
        2799381724,
        2799381743,
        2799381744,
        2799381745,
        2799381746
      ],
      "tags": {
        "addr:housenumber": "610",
        "addr:postcode": "10451",
        "addr:street": "Exterior Street",
        "building": "retail",
        "height": "36.6",
        "name": "Bronx Terminal Market",
        "nycdoitt:bin": "2119100",
        "opening_hours": "Mo-Su 06:00-24:00",
        "operator": "The Related Companies",
        "phone": "+1 718-513-7725",
        "shop": "mall",
        "source": "http://www.bronxterminalmarket.com/",
        "website": "http://bronxterminalmarket.com",
        "wikidata": "Q4974207",
        "wikipedia": "en:Bronx Terminal Market"
      }
    },
    {
      "type": "way",
      "id": 275300099,
      "nodes": [
        2799381780,
        2799381779,
        2799381778,
        2799381782,
        2799381781,
        2799381788,
        2799381789,
        2799381793,
        2799381792,
        2799381794,
        2799381795,
        2799381799,
        2799381798,
        2799382001,
        2799382002,
        2799382007,
        2799382006,
        2799382008,
        2799382009,
        2799381796,
        2799381790,
        2799381791,
        2799381787,
        2799381786,
        2799381785,
        2799381784,
        2799381783,
        2799381780
      ],
      "tags": {
        "addr:housenumber": "610",
        "addr:postcode": "10451",
        "addr:street": "Exterior Street",
        "building": "retail",
        "height": "30.1",
        "name": "Bronx Terminal Market",
        "nycdoitt:bin": "2119099",
        "shop": "mall",
        "source": "http://www.bronxterminalmarket.com/"
      }
    },
    {
      "type": "way",
      "id": 277175472,
      "nodes": [
        2817044688,
        2817044695,
        2817044694,
        2817044687,
        2817044692,
        2817044696,
        2817044690,
        2817044691,
        2885521860,
        2817044693,
        2817044689,
        2817044688
      ],
      "tags": {
        "addr:postcode": "11360",
        "name": "The Bay Terrace",
        "shop": "mall",
        "wheelchair": "yes"
      }
    },
    {
      "type": "way",
      "id": 280335775,
      "nodes": [
        2844722160,
        2844722183,
        2844722155,
        2844722156,
        2844722186,
        2844722200,
        2844722141,
        2844722122,
        2844722123,
        2844722132,
        2844722246,
        2844722243,
        2844722250,
        2844722245,
        2844722239,
        2844722235,
        2844722240,
        2844722234,
        2844722223,
        2844722226,
        2844722230,
        2844722231,
        2844722229,
        2844722227,
        2844722225,
        2844722222,
        2844722219,
        2844722217,
        2844722212,
        2844722209,
        2844722206,
        2844722202,
        2844722198,
        2844722194,
        2844722193,
        2844722189,
        2844722180,
        2844722176,
        2844722171,
        2844722168,
        2844722165,
        2844722164,
        2844722167,
        2844722169,
        2844722174,
        2844722177,
        2844722179,
        2844722187,
        2844722192,
        2844722197,
        2844722201,
        2844722207,
        2844722210,
        2844722214,
        2844722208,
        2844722170,
        2844722160
      ],
      "tags": {
        "addr:postcode": "11377",
        "building": "retail",
        "height": "9.7",
        "name": "Big Six Shopping Center",
        "nycdoitt:bin": "4437383",
        "shop": "mall"
      }
    },
    {
      "type": "way",
      "id": 280494567,
      "nodes": [
        2846037747,
        2689614140,
        2846037708,
        3221571300,
        2846037711,
        3221461715,
        3221461713,
        2846037757,
        2846037782,
        2846037911,
        3221461711,
        3221461709,
        3221461708,
        6219213310,
        3221461714,
        2846027269,
        3221571301,
        2846027268,
        2846027267,
        2846027246,
        5280221072,
        6219213312,
        2846027274,
        2846037705,
        6219213311,
        2846037921,
        2846037910,
        2846037793,
        2846037760,
        2846037747
      ],
      "tags": {
        "addr:city": "Elmhurst",
        "addr:housenumber": "90-15",
        "addr:postcode": "11373",
        "addr:state": "NY",
        "addr:street": "Queens Boulevard",
        "building": "retail",
        "building:levels": "3",
        "building:min_level": "-1",
        "contact:facebook": "https://www.facebook.com/QueensCenter",
        "contact:instagram": "https://www.instagram.com/queenscentermall/",
        "contact:twitter": "https://twitter.com/Queens_Center",
        "height": "21.3",
        "name": "Queens Center",
        "nycdoitt:bin": "4045999",
        "opening_hours": "Mo-Sa 10:00-21:30; Su 11:00-20:00",
        "operator": "Macerich",
        "phone": "+1 718-592-3901",
        "shop": "mall",
        "website": "https://www.shopqueenscenter.com",
        "wheelchair": "yes",
        "wikidata": "Q7270733",
        "wikipedia": "en:Queens Center Mall"
      }
    },
    {
      "type": "way",
      "id": 280494570,
      "nodes": [
        2846038126,
        2846038119,
        2846038110,
        2846038097,
        2846038098,
        2846038099,
        2846038100,
        2846038102,
        2846038105,
        2846038109,
        2846038112,
        2846038115,
        2846038122,
        2846038127,
        2846038131,
        2846038139,
        2846038145,
        2846038149,
        2846038151,
        2846038154,
        2846038156,
        2846038159,
        2846038160,
        2846038162,
        2846038163,
        2846038161,
        2846038158,
        2846038155,
        2846038153,
        2846038150,
        2846038147,
        2846038143,
        2846038141,
        2846038138,
        2846038136,
        2846038135,
        2846038129,
        2846038128,
        2846038125,
        2846038121,
        2846038117,
        2846038114,
        2846038111,
        2846038106,
        2846038104,
        2846038101,
        2846038096,
        2846038092,
        2846038088,
        2846038087,
        2846038086,
        2846038083,
        2846038082,
        2846038085,
        2846038084,
        2846038080,
        2846038066,
        2846038070,
        2846038073,
        2846038072,
        2846038068,
        2846038065,
        2846038061,
        2846038059,
        2846038054,
        2846038049,
        2846038046,
        2846038038,
        2846038032,
        2846038023,
        2846038016,
        2846038010,
        2846038006,
        2846037999,
        2846037991,
        2846037981,
        2846037979,
        2846037976,
        2846037974,
        2846037972,
        2846037969,
        2846037966,
        2846037964,
        2846037963,
        2846037960,
        2846037957,
        2846037956,
        2846037958,
        2846037961,
        2846037962,
        2846037965,
        2846037968,
        2846037970,
        2846037971,
        2846037975,
        2846037978,
        2846037980,
        2846037990,
        2846037995,
        2846038000,
        2846038005,
        2846038008,
        2846038015,
        2846038021,
        2846038026,
        2846038030,
        2846038037,
        2846038039,
        2846038042,
        2846038044,
        2846038045,
        2846038028,
        2846038011,
        2846038003,
        2846037985,
        2846037973,
        2846037959,
        2846037952,
        2846037951,
        2846037945,
        2846037937,
        2846037935,
        2846037931,
        2846037924,
        2846037918,
        2846037909,
        2846037905,
        2846037799,
        2846037794,
        2846037787,
        2846037781,
        2846037778,
        2846037773,
        2846037771,
        2846037768,
        2846037766,
        2846037764,
        2846037762,
        2846037758,
        2846037759,
        2846037761,
        2846037763,
        2846037765,
        2846037767,
        2846037769,
        2846037770,
        2846037775,
        2846037780,
        2846037786,
        2846037789,
        2846037791,
        2846037798,
        2846037904,
        2846037906,
        2846037915,
        2846037917,
        2846037923,
        2846037930,
        2846037934,
        2846037941,
        2846037947,
        2846037950,
        2846037953,
        2846037955,
        2846037967,
        2846037977,
        2846037982,
        2846038002,
        2846038018,
        2846038025,
        2846038034,
        2846038050,
        2846038057,
        2846038081,
        2846038091,
        2846038103,
        2846038113,
        2846038116,
        2846038124,
        2846038132,
        2846038130,
        2846038144,
        2846038146,
        2846038152,
        2846038165,
        2846038168,
        2846038170,
        2846038172,
        2846038177,
        2846038183,
        2846038187,
        2846038194,
        2846038199,
        2846038203,
        2846038208,
        2846038215,
        2846038221,
        2846038231,
        2846038236,
        2846038243,
        2846038244,
        2846038250,
        2846038251,
        2846038256,
        2846038259,
        2846038257,
        2846038253,
        2846038248,
        2846038245,
        2846038241,
        2846038237,
        2846038228,
        2846038216,
        2846038211,
        2846038206,
        2846038201,
        2846038196,
        2846038191,
        2846038188,
        2846038184,
        2846038178,
        2846038173,
        2846038171,
        2846038169,
        2846038166,
        2846038164,
        2846038148,
        2846038142,
        2846038134,
        2846038126
      ],
      "tags": {
        "addr:city": "Elmhurst",
        "addr:housenumber": "88-01",
        "addr:postcode": "11373",
        "addr:state": "NY",
        "addr:street": "Queens Boulevard",
        "building": "yes",
        "height": "31.1",
        "name": "Queens Place",
        "nycdoitt:bin": "4533805",
        "operator": "Forest City",
        "shop": "mall",
        "wikidata": "Q7270805"
      }
    },
    {
      "type": "way",
      "id": 282161202,
      "nodes": [
        2860993511,
        2860993498,
        2860993466,
        2860993467,
        2860993469,
        2860993468,
        2860993463,
        2860993460,
        2860993470,
        2860993471,
        2860993500,
        2860993504,
        2860993508,
        2860993522,
        2860993512,
        2860993511
      ],
      "tags": {
        "amenity": "parking",
        "building": "retail",
        "height": "11.1",
        "nycdoitt:bin": "2097366",
        "shop": "mall"
      }
    },
    {
      "type": "way",
      "id": 283161986,
      "nodes": [
        2870712516,
        2870712581,
        2870712590,
        2870712536,
        2870712516
      ],
      "tags": {
        "building": "yes",
        "height": "7.0",
        "name": "Jamaica Colosseum",
        "nycdoitt:bin": "4209594",
        "opening_hours": "Mo-We 11:00-19:00, Th 11:00-20:00, Fr 10:00-20:00, Su 10:00-20:00, Dec 17-19 11:00-19:00, Dec 20 11:00-20:00, Dec 21 10:00-20:00, Dec 22 9:00-20:00, Dec 23 10:00-20:00, Dec 24 9:00-21:00",
        "shop": "mall"
      }
    },
    {
      "type": "way",
      "id": 291964605,
      "nodes": [
        2573007411,
        2573007393,
        2573007364,
        2573007361,
        2573007370,
        2573007373,
        2573007387,
        2573007391,
        2573007394,
        2573007398,
        2573007407,
        4995007847,
        2573007476,
        2573007487,
        2954727321,
        2954727311,
        2573007670,
        2573007420,
        2573007411
      ],
      "tags": {
        "addr:city": "Brooklyn",
        "addr:housenumber": "139",
        "addr:postcode": "11217",
        "addr:state": "NY",
        "addr:street": "Flatbush Avenue",
        "building": "yes",
        "height": "17.3",
        "name": "Atlantic Terminal",
        "name:es": "guitarra center Brooklyn",
        "nycdoitt:bin": "3348849",
        "operator": "Forest City",
        "shop": "mall",
        "wheelchair": "yes"
      }
    },
    {
      "type": "way",
      "id": 398440363,
      "nodes": [
        4011978540,
        3080007990,
        6397326464,
        3080007991,
        4011978541,
        4011978542,
        4011978543,
        4011978540
      ],
      "tags": {
        "building": "yes",
        "building_1": "retail",
        "name": "The Shops & Restaurants at Hudson Yards",
        "shop": "mall"
      }
    },
    {
      "type": "way",
      "id": 398440365,
      "nodes": [
        4011978546,
        4011978547,
        4011978548,
        4011978549,
        4011978550,
        4011978551,
        4011978552,
        4011978553,
        4011978554,
        4011978555,
        4011978556,
        4011978557,
        4011978546
      ],
      "tags": {
        "building": "yes",
        "name": "Mall at Bay Plaza",
        "shop": "mall",
        "wikidata": "Q4874061"
      }
    },
    {
      "type": "way",
      "id": 429027547,
      "nodes": [
        4281559520,
        4281559519,
        4281559524,
        4281559526,
        4281559508,
        4281559502,
        4281559501,
        2860416789,
        4281559520
      ],
      "tags": {
        "amenity": "parking",
        "building": "retail",
        "landuse": "retail",
        "shop": "mall"
      }
    },
    {
      "type": "way",
      "id": 479215054,
      "nodes": [
        4723581236,
        4723581237,
        4975349058,
        4723581240,
        4975349057,
        4723581241,
        4723581236
      ],
      "tags": {
        "addr:city": "Brooklyn",
        "addr:postcode": "11224",
        "addr:state": "NY",
        "addr:street": "West 5th Street",
        "building": "yes",
        "construction": "building",
        "shop": "mall"
      }
    },
    {
      "type": "way",
      "id": 527858945,
      "nodes": [
        5130957341,
        5130957345,
        5130962680,
        5130957344,
        5130957342,
        5130957343,
        5130958280,
        2810109257,
        2810109289,
        2810109307,
        2810109328,
        5130962681,
        5130957341
      ],
      "tags": {
        "building": "retail",
        "shop": "mall"
      }
    },
    {
      "type": "node",
      "id": 1708707082,
      "lat": 40.5429739,
      "lon": -74.2083765
    },
    {
      "type": "node",
      "id": 1708707085,
      "lat": 40.5422026,
      "lon": -74.2080426
    },
    {
      "type": "node",
      "id": 1708707065,
      "lat": 40.5424482,
      "lon": -74.2056865
    },
    {
      "type": "node",
      "id": 1708707066,
      "lat": 40.5433034,
      "lon": -74.2061435
    },
    {
      "type": "node",
      "id": 2552820694,
      "lat": 40.5788781,
      "lon": -73.97401
    },
    {
      "type": "node",
      "id": 2552820702,
      "lat": 40.578903,
      "lon": -73.9740055
    },
    {
      "type": "node",
      "id": 2552820708,
      "lat": 40.5789439,
      "lon": -73.9743799
    },
    {
      "type": "node",
      "id": 2552820710,
      "lat": 40.5789444,
      "lon": -73.9743881
    },
    {
      "type": "node",
      "id": 2552820723,
      "lat": 40.5789727,
      "lon": -73.9743853
    },
    {
      "type": "node",
      "id": 2552820726,
      "lat": 40.5789819,
      "lon": -73.9746039
    },
    {
      "type": "node",
      "id": 2552820729,
      "lat": 40.579233,
      "lon": -73.9739755
    },
    {
      "type": "node",
      "id": 2552820735,
      "lat": 40.5792535,
      "lon": -73.9743315
    },
    {
      "type": "node",
      "id": 2552820741,
      "lat": 40.5797735,
      "lon": -73.9742207
    },
    {
      "type": "node",
      "id": 2552820744,
      "lat": 40.5797869,
      "lon": -73.9745454
    },
    {
      "type": "node",
      "id": 4723581236,
      "lat": 40.5796042,
      "lon": -73.9721138
    },
    {
      "type": "node",
      "id": 4723581237,
      "lat": 40.5788007,
      "lon": -73.972303
    },
    {
      "type": "node",
      "id": 4723581240,
      "lat": 40.5793142,
      "lon": -73.9732317
    },
    {
      "type": "node",
      "id": 4723581241,
      "lat": 40.5796558,
      "lon": -73.9731986
    },
    {
      "type": "node",
      "id": 4975349057,
      "lat": 40.579615,
      "lon": -73.9732035
    },
    {
      "type": "node",
      "id": 4975349058,
      "lat": 40.5788564,
      "lon": -73.9732851
    },
    {
      "type": "node",
      "id": 2573007373,
      "lat": 40.6841055,
      "lon": -73.977074
    },
    {
      "type": "node",
      "id": 2573007387,
      "lat": 40.6841368,
      "lon": -73.9771833
    },
    {
      "type": "node",
      "id": 2573007391,
      "lat": 40.6841754,
      "lon": -73.9772507
    },
    {
      "type": "node",
      "id": 2573007394,
      "lat": 40.6842004,
      "lon": -73.9772881
    },
    {
      "type": "node",
      "id": 2573007398,
      "lat": 40.6842307,
      "lon": -73.9773248
    },
    {
      "type": "node",
      "id": 2573007407,
      "lat": 40.6842706,
      "lon": -73.977362
    },
    {
      "type": "node",
      "id": 2573007476,
      "lat": 40.684504,
      "lon": -73.9775321
    },
    {
      "type": "node",
      "id": 2573007487,
      "lat": 40.6845493,
      "lon": -73.9775559
    },
    {
      "type": "node",
      "id": 2954727311,
      "lat": 40.685032,
      "lon": -73.9773969
    },
    {
      "type": "node",
      "id": 2954727321,
      "lat": 40.6847063,
      "lon": -73.9776778
    },
    {
      "type": "node",
      "id": 4995007847,
      "lat": 40.6844941,
      "lon": -73.9775249
    },
    {
      "type": "node",
      "id": 2573007239,
      "lat": 40.6832859,
      "lon": -73.9739807
    },
    {
      "type": "node",
      "id": 2573007276,
      "lat": 40.6833111,
      "lon": -73.9739715
    },
    {
      "type": "node",
      "id": 2573007307,
      "lat": 40.6835984,
      "lon": -73.9754681
    },
    {
      "type": "node",
      "id": 2573007316,
      "lat": 40.6837049,
      "lon": -73.9740504
    },
    {
      "type": "node",
      "id": 2573007321,
      "lat": 40.6837624,
      "lon": -73.9757711
    },
    {
      "type": "node",
      "id": 2573007336,
      "lat": 40.6839196,
      "lon": -73.9750759
    },
    {
      "type": "node",
      "id": 2573007361,
      "lat": 40.684094,
      "lon": -73.9769613
    },
    {
      "type": "node",
      "id": 2573007364,
      "lat": 40.6840941,
      "lon": -73.9769233
    },
    {
      "type": "node",
      "id": 2573007370,
      "lat": 40.684098,
      "lon": -73.977018
    },
    {
      "type": "node",
      "id": 2573007393,
      "lat": 40.6841845,
      "lon": -73.976114
    },
    {
      "type": "node",
      "id": 2573007410,
      "lat": 40.6842801,
      "lon": -73.9758748
    },
    {
      "type": "node",
      "id": 2573007411,
      "lat": 40.6842843,
      "lon": -73.9761343
    },
    {
      "type": "node",
      "id": 2573007419,
      "lat": 40.6843211,
      "lon": -73.975883
    },
    {
      "type": "node",
      "id": 2573007420,
      "lat": 40.6843231,
      "lon": -73.9761422
    },
    {
      "type": "node",
      "id": 2573007670,
      "lat": 40.6851632,
      "lon": -73.9763129
    },
    {
      "type": "node",
      "id": 2573007689,
      "lat": 40.6851928,
      "lon": -73.9760577
    },
    {
      "type": "node",
      "id": 2573007742,
      "lat": 40.6852753,
      "lon": -73.9753475
    },
    {
      "type": "node",
      "id": 2565495738,
      "lat": 40.6080013,
      "lon": -73.9196208
    },
    {
      "type": "node",
      "id": 2565495741,
      "lat": 40.6083714,
      "lon": -73.9189274
    },
    {
      "type": "node",
      "id": 2565495744,
      "lat": 40.6084184,
      "lon": -73.9189801
    },
    {
      "type": "node",
      "id": 2565495746,
      "lat": 40.6087322,
      "lon": -73.92044
    },
    {
      "type": "node",
      "id": 2565495750,
      "lat": 40.6088116,
      "lon": -73.9204252
    },
    {
      "type": "node",
      "id": 2565495754,
      "lat": 40.6088368,
      "lon": -73.9202793
    },
    {
      "type": "node",
      "id": 2565495757,
      "lat": 40.6088774,
      "lon": -73.9203247
    },
    {
      "type": "node",
      "id": 2565495761,
      "lat": 40.6089088,
      "lon": -73.9181018
    },
    {
      "type": "node",
      "id": 5487939663,
      "lat": 40.6089476,
      "lon": -73.9205778
    },
    {
      "type": "node",
      "id": 2565495766,
      "lat": 40.6095412,
      "lon": -73.9216516
    },
    {
      "type": "node",
      "id": 2565495769,
      "lat": 40.6095544,
      "lon": -73.9214298
    },
    {
      "type": "node",
      "id": 2565495773,
      "lat": 40.6095555,
      "lon": -73.9214591
    },
    {
      "type": "node",
      "id": 2565495777,
      "lat": 40.6095556,
      "lon": -73.9214005
    },
    {
      "type": "node",
      "id": 2565495779,
      "lat": 40.6095571,
      "lon": -73.9213859
    },
    {
      "type": "node",
      "id": 2565495783,
      "lat": 40.6095588,
      "lon": -73.9214882
    },
    {
      "type": "node",
      "id": 2565495787,
      "lat": 40.6095613,
      "lon": -73.9215025
    },
    {
      "type": "node",
      "id": 2565495791,
      "lat": 40.6095616,
      "lon": -73.9213571
    },
    {
      "type": "node",
      "id": 2565495795,
      "lat": 40.6095643,
      "lon": -73.9215166
    },
    {
      "type": "node",
      "id": 2565495799,
      "lat": 40.6095683,
      "lon": -73.9213291
    },
    {
      "type": "node",
      "id": 2565495804,
      "lat": 40.6095719,
      "lon": -73.9215442
    },
    {
      "type": "node",
      "id": 2565495806,
      "lat": 40.609582,
      "lon": -73.9212896
    },
    {
      "type": "node",
      "id": 2565495809,
      "lat": 40.6095866,
      "lon": -73.9215819
    },
    {
      "type": "node",
      "id": 2565495854,
      "lat": 40.6098919,
      "lon": -73.9220447
    },
    {
      "type": "node",
      "id": 2565496042,
      "lat": 40.6119408,
      "lon": -73.9189666
    },
    {
      "type": "node",
      "id": 2565496444,
      "lat": 40.6107756,
      "lon": -73.9205106
    },
    {
      "type": "node",
      "id": 2565496480,
      "lat": 40.6108421,
      "lon": -73.9205852
    },
    {
      "type": "node",
      "id": 2565496510,
      "lat": 40.6117003,
      "lon": -73.9193201
    },
    {
      "type": "node",
      "id": 2565496524,
      "lat": 40.6109292,
      "lon": -73.9202745
    },
    {
      "type": "node",
      "id": 2565496555,
      "lat": 40.6109864,
      "lon": -73.9203387
    },
    {
      "type": "node",
      "id": 2565496808,
      "lat": 40.6115095,
      "lon": -73.9194692
    },
    {
      "type": "node",
      "id": 4968350398,
      "lat": 40.6103825,
      "lon": -73.9182072
    },
    {
      "type": "node",
      "id": 4968350399,
      "lat": 40.6102179,
      "lon": -73.9184428
    },
    {
      "type": "node",
      "id": 5487939664,
      "lat": 40.6111262,
      "lon": -73.9180662
    },
    {
      "type": "node",
      "id": 2565495812,
      "lat": 40.6096727,
      "lon": -73.9178459
    },
    {
      "type": "node",
      "id": 2565496032,
      "lat": 40.6107697,
      "lon": -73.9176722
    },
    {
      "type": "node",
      "id": 4968350396,
      "lat": 40.6107048,
      "lon": -73.9177736
    },
    {
      "type": "node",
      "id": 4968350397,
      "lat": 40.6106748,
      "lon": -73.9177404
    },
    {
      "type": "node",
      "id": 2541780779,
      "lat": 40.64452,
      "lon": -73.91436
    },
    {
      "type": "node",
      "id": 2541780795,
      "lat": 40.6447323,
      "lon": -73.9146129
    },
    {
      "type": "node",
      "id": 2541780828,
      "lat": 40.6450335,
      "lon": -73.9155604
    },
    {
      "type": "node",
      "id": 2541780842,
      "lat": 40.6450168,
      "lon": -73.9134501
    },
    {
      "type": "node",
      "id": 2541780852,
      "lat": 40.6451452,
      "lon": -73.9157697
    },
    {
      "type": "node",
      "id": 2541780854,
      "lat": 40.6451769,
      "lon": -73.9157205
    },
    {
      "type": "node",
      "id": 2541780857,
      "lat": 40.6451896,
      "lon": -73.915819
    },
    {
      "type": "node",
      "id": 2541780862,
      "lat": 40.645221,
      "lon": -73.9157698
    },
    {
      "type": "node",
      "id": 2541780871,
      "lat": 40.6452632,
      "lon": -73.9152059
    },
    {
      "type": "node",
      "id": 2541780883,
      "lat": 40.6453231,
      "lon": -73.9158838
    },
    {
      "type": "node",
      "id": 2541780887,
      "lat": 40.6460974,
      "lon": -73.9146659
    },
    {
      "type": "node",
      "id": 2541780900,
      "lat": 40.6453982,
      "lon": -73.9138826
    },
    {
      "type": "node",
      "id": 2541780929,
      "lat": 40.6460364,
      "lon": -73.9147834
    },
    {
      "type": "node",
      "id": 3144821007,
      "lat": 40.6446127,
      "lon": -73.9142085
    },
    {
      "type": "node",
      "id": 3144821008,
      "lat": 40.6444238,
      "lon": -73.9140001
    },
    {
      "type": "node",
      "id": 3144821009,
      "lat": 40.6447444,
      "lon": -73.9135427
    },
    {
      "type": "node",
      "id": 3080007990,
      "lat": 40.7527838,
      "lon": -74.0009789
    },
    {
      "type": "node",
      "id": 3080007991,
      "lat": 40.7530973,
      "lon": -74.0017447
    },
    {
      "type": "node",
      "id": 4011978540,
      "lat": 40.7526844,
      "lon": -74.0007375
    },
    {
      "type": "node",
      "id": 4011978541,
      "lat": 40.7531181,
      "lon": -74.0017939
    },
    {
      "type": "node",
      "id": 6397326464,
      "lat": 40.7527933,
      "lon": -74.0010028
    },
    {
      "type": "node",
      "id": 2703449764,
      "lat": 40.7486464,
      "lon": -73.9888214
    },
    {
      "type": "node",
      "id": 2703449818,
      "lat": 40.7489232,
      "lon": -73.9894866
    },
    {
      "type": "node",
      "id": 2703449822,
      "lat": 40.7489467,
      "lon": -73.9895432
    },
    {
      "type": "node",
      "id": 2703449849,
      "lat": 40.7491248,
      "lon": -73.9884733
    },
    {
      "type": "node",
      "id": 2703449852,
      "lat": 40.7491783,
      "lon": -73.9900856
    },
    {
      "type": "node",
      "id": 2703449854,
      "lat": 40.7496567,
      "lon": -73.9897376
    },
    {
      "type": "node",
      "id": 4011978542,
      "lat": 40.7540258,
      "lon": -74.0011446
    },
    {
      "type": "node",
      "id": 4011978543,
      "lat": 40.7535922,
      "lon": -74.0000882
    },
    {
      "type": "node",
      "id": 2765482270,
      "lat": 40.7953733,
      "lon": -73.9315634
    },
    {
      "type": "node",
      "id": 2765482398,
      "lat": 40.7954205,
      "lon": -73.9316765
    },
    {
      "type": "node",
      "id": 2765482520,
      "lat": 40.7958063,
      "lon": -73.9317138
    },
    {
      "type": "node",
      "id": 2765482523,
      "lat": 40.7958045,
      "lon": -73.9312659
    },
    {
      "type": "node",
      "id": 2765482530,
      "lat": 40.7958279,
      "lon": -73.9317671
    },
    {
      "type": "node",
      "id": 2765482532,
      "lat": 40.795831,
      "lon": -73.931247
    },
    {
      "type": "node",
      "id": 2765482538,
      "lat": 40.795844,
      "lon": -73.9312784
    },
    {
      "type": "node",
      "id": 2765482547,
      "lat": 40.7958668,
      "lon": -73.9317397
    },
    {
      "type": "node",
      "id": 2765482552,
      "lat": 40.7958696,
      "lon": -73.9312602
    },
    {
      "type": "node",
      "id": 2765482572,
      "lat": 40.7959255,
      "lon": -73.9316985
    },
    {
      "type": "node",
      "id": 2765482600,
      "lat": 40.7959636,
      "lon": -73.9316716
    },
    {
      "type": "node",
      "id": 2765482665,
      "lat": 40.7960284,
      "lon": -73.9316255
    },
    {
      "type": "node",
      "id": 6257070493,
      "lat": 40.7955205,
      "lon": -73.9319217
    },
    {
      "type": "node",
      "id": 6257070511,
      "lat": 40.7957763,
      "lon": -73.9317342
    },
    {
      "type": "node",
      "id": 6257070521,
      "lat": 40.7955216,
      "lon": -73.9319209
    },
    {
      "type": "node",
      "id": 6257190475,
      "lat": 40.7955498,
      "lon": -73.9319002
    },
    {
      "type": "node",
      "id": 6257190477,
      "lat": 40.795973,
      "lon": -73.9316649
    },
    {
      "type": "node",
      "id": 6257190593,
      "lat": 40.7953293,
      "lon": -73.9315948
    },
    {
      "type": "node",
      "id": 6257190611,
      "lat": 40.795227,
      "lon": -73.9313466
    },
    {
      "type": "node",
      "id": 6257190616,
      "lat": 40.7952021,
      "lon": -73.9312863
    },
    {
      "type": "node",
      "id": 2765482011,
      "lat": 40.794931,
      "lon": -73.9305428
    },
    {
      "type": "node",
      "id": 2765482022,
      "lat": 40.7949697,
      "lon": -73.9304945
    },
    {
      "type": "node",
      "id": 2765482050,
      "lat": 40.7950234,
      "lon": -73.9304306
    },
    {
      "type": "node",
      "id": 2765482064,
      "lat": 40.7950295,
      "lon": -73.9304496
    },
    {
      "type": "node",
      "id": 2765482241,
      "lat": 40.7952906,
      "lon": -73.9301676
    },
    {
      "type": "node",
      "id": 2765482345,
      "lat": 40.795348,
      "lon": -73.9301183
    },
    {
      "type": "node",
      "id": 2765482470,
      "lat": 40.7955723,
      "lon": -73.9299603
    },
    {
      "type": "node",
      "id": 2765482481,
      "lat": 40.7956998,
      "lon": -73.9310115
    },
    {
      "type": "node",
      "id": 2765482612,
      "lat": 40.7959731,
      "lon": -73.9297456
    },
    {
      "type": "node",
      "id": 2765482618,
      "lat": 40.7959805,
      "lon": -73.9297638
    },
    {
      "type": "node",
      "id": 2765482692,
      "lat": 40.7960446,
      "lon": -73.9297185
    },
    {
      "type": "node",
      "id": 2765482727,
      "lat": 40.7960536,
      "lon": -73.9306747
    },
    {
      "type": "node",
      "id": 2765482752,
      "lat": 40.7960657,
      "lon": -73.9297702
    },
    {
      "type": "node",
      "id": 2765482777,
      "lat": 40.7960784,
      "lon": -73.9307417
    },
    {
      "type": "node",
      "id": 2765482886,
      "lat": 40.7961401,
      "lon": -73.9306182
    },
    {
      "type": "node",
      "id": 2765482899,
      "lat": 40.7961412,
      "lon": -73.9306174
    },
    {
      "type": "node",
      "id": 2765482988,
      "lat": 40.7962027,
      "lon": -73.9305722
    },
    {
      "type": "node",
      "id": 2765483098,
      "lat": 40.7962645,
      "lon": -73.9305267
    },
    {
      "type": "node",
      "id": 2765483210,
      "lat": 40.796333,
      "lon": -73.9304763
    },
    {
      "type": "node",
      "id": 2765483221,
      "lat": 40.7963492,
      "lon": -73.9304644
    },
    {
      "type": "node",
      "id": 6256829755,
      "lat": 40.795116,
      "lon": -73.9310788
    },
    {
      "type": "node",
      "id": 6256829756,
      "lat": 40.7950766,
      "lon": -73.9308882
    },
    {
      "type": "node",
      "id": 6256829758,
      "lat": 40.7950457,
      "lon": -73.9309114
    },
    {
      "type": "node",
      "id": 6257190469,
      "lat": 40.7957529,
      "lon": -73.9309737
    },
    {
      "type": "node",
      "id": 6257190478,
      "lat": 40.7950696,
      "lon": -73.9309676
    },
    {
      "type": "node",
      "id": 6257190610,
      "lat": 40.7949426,
      "lon": -73.9305292
    },
    {
      "type": "node",
      "id": 2572928931,
      "lat": 40.7121889,
      "lon": -73.8935077
    },
    {
      "type": "node",
      "id": 2572931429,
      "lat": 40.7107726,
      "lon": -73.8930203
    },
    {
      "type": "node",
      "id": 2572931449,
      "lat": 40.7107792,
      "lon": -73.8930199
    },
    {
      "type": "node",
      "id": 2572931466,
      "lat": 40.710782,
      "lon": -73.8930973
    },
    {
      "type": "node",
      "id": 2572933782,
      "lat": 40.7116681,
      "lon": -73.8934251
    },
    {
      "type": "node",
      "id": 2572933879,
      "lat": 40.7117291,
      "lon": -73.893449
    },
    {
      "type": "node",
      "id": 2572933914,
      "lat": 40.7117498,
      "lon": -73.8933314
    },
    {
      "type": "node",
      "id": 2572931210,
      "lat": 40.7106756,
      "lon": -73.8903501
    },
    {
      "type": "node",
      "id": 2572931217,
      "lat": 40.7106772,
      "lon": -73.8902786
    },
    {
      "type": "node",
      "id": 2572932888,
      "lat": 40.711254,
      "lon": -73.8899886
    },
    {
      "type": "node",
      "id": 2572933847,
      "lat": 40.7117094,
      "lon": -73.8897681
    },
    {
      "type": "node",
      "id": 2572933935,
      "lat": 40.7117634,
      "lon": -73.8898784
    },
    {
      "type": "node",
      "id": 2572934430,
      "lat": 40.7120398,
      "lon": -73.8897436
    },
    {
      "type": "node",
      "id": 2572934505,
      "lat": 40.7120788,
      "lon": -73.8906187
    },
    {
      "type": "node",
      "id": 2572934509,
      "lat": 40.7120813,
      "lon": -73.8907442
    },
    {
      "type": "node",
      "id": 2572934652,
      "lat": 40.7121706,
      "lon": -73.8906139
    },
    {
      "type": "node",
      "id": 2572934654,
      "lat": 40.7121751,
      "lon": -73.8907402
    },
    {
      "type": "node",
      "id": 2844722122,
      "lat": 40.7407171,
      "lon": -73.9041541
    },
    {
      "type": "node",
      "id": 2844722123,
      "lat": 40.7407195,
      "lon": -73.9041749
    },
    {
      "type": "node",
      "id": 2844722132,
      "lat": 40.7407507,
      "lon": -73.9044491
    },
    {
      "type": "node",
      "id": 2844722141,
      "lat": 40.7407705,
      "lon": -73.9041436
    },
    {
      "type": "node",
      "id": 2844722155,
      "lat": 40.7408245,
      "lon": -73.9037277
    },
    {
      "type": "node",
      "id": 2844722156,
      "lat": 40.740831,
      "lon": -73.9037843
    },
    {
      "type": "node",
      "id": 2844722160,
      "lat": 40.740866,
      "lon": -73.9032674
    },
    {
      "type": "node",
      "id": 2844722164,
      "lat": 40.7408815,
      "lon": -73.9031154
    },
    {
      "type": "node",
      "id": 2844722165,
      "lat": 40.7408818,
      "lon": -73.9030966
    },
    {
      "type": "node",
      "id": 2844722167,
      "lat": 40.7408833,
      "lon": -73.9031343
    },
    {
      "type": "node",
      "id": 2844722168,
      "lat": 40.7408842,
      "lon": -73.903078
    },
    {
      "type": "node",
      "id": 2844722169,
      "lat": 40.7408874,
      "lon": -73.9031527
    },
    {
      "type": "node",
      "id": 2844722170,
      "lat": 40.7408882,
      "lon": -73.9032631
    },
    {
      "type": "node",
      "id": 2844722171,
      "lat": 40.7408888,
      "lon": -73.9030601
    },
    {
      "type": "node",
      "id": 2844722174,
      "lat": 40.7408937,
      "lon": -73.9031699
    },
    {
      "type": "node",
      "id": 2844722176,
      "lat": 40.7408993,
      "lon": -73.9030356
    },
    {
      "type": "node",
      "id": 2844722177,
      "lat": 40.740902,
      "lon": -73.9031857
    },
    {
      "type": "node",
      "id": 2844722179,
      "lat": 40.7409121,
      "lon": -73.9031994
    },
    {
      "type": "node",
      "id": 2844722180,
      "lat": 40.7409138,
      "lon": -73.9030149
    },
    {
      "type": "node",
      "id": 2844722183,
      "lat": 40.7409163,
      "lon": -73.9037097
    },
    {
      "type": "node",
      "id": 2844722186,
      "lat": 40.7409227,
      "lon": -73.9037662
    },
    {
      "type": "node",
      "id": 2844722187,
      "lat": 40.7409238,
      "lon": -73.9032109
    },
    {
      "type": "node",
      "id": 2844722189,
      "lat": 40.7409252,
      "lon": -73.9030037
    },
    {
      "type": "node",
      "id": 2844722192,
      "lat": 40.7409367,
      "lon": -73.9032197
    },
    {
      "type": "node",
      "id": 2844722193,
      "lat": 40.7409377,
      "lon": -73.9029951
    },
    {
      "type": "node",
      "id": 2844722194,
      "lat": 40.7409444,
      "lon": -73.9029918
    },
    {
      "type": "node",
      "id": 2844722197,
      "lat": 40.7409506,
      "lon": -73.9032258
    },
    {
      "type": "node",
      "id": 2844722198,
      "lat": 40.7409581,
      "lon": -73.9029872
    },
    {
      "type": "node",
      "id": 2844722200,
      "lat": 40.7409614,
      "lon": -73.9041061
    },
    {
      "type": "node",
      "id": 2844722201,
      "lat": 40.740965,
      "lon": -73.9032288
    },
    {
      "type": "node",
      "id": 2844722202,
      "lat": 40.7409721,
      "lon": -73.9029855
    },
    {
      "type": "node",
      "id": 2844722206,
      "lat": 40.7409792,
      "lon": -73.9029857
    },
    {
      "type": "node",
      "id": 2844722207,
      "lat": 40.7409796,
      "lon": -73.9032287
    },
    {
      "type": "node",
      "id": 2844722208,
      "lat": 40.7409861,
      "lon": -73.9032438
    },
    {
      "type": "node",
      "id": 2844722209,
      "lat": 40.7409931,
      "lon": -73.9029884
    },
    {
      "type": "node",
      "id": 2844722210,
      "lat": 40.740994,
      "lon": -73.9032256
    },
    {
      "type": "node",
      "id": 2844722212,
      "lat": 40.7409999,
      "lon": -73.9029908
    },
    {
      "type": "node",
      "id": 2844722214,
      "lat": 40.7410079,
      "lon": -73.9032195
    },
    {
      "type": "node",
      "id": 2844722217,
      "lat": 40.7410131,
      "lon": -73.9029976
    },
    {
      "type": "node",
      "id": 2844722219,
      "lat": 40.7410252,
      "lon": -73.9030071
    },
    {
      "type": "node",
      "id": 2844722222,
      "lat": 40.7410309,
      "lon": -73.9030127
    },
    {
      "type": "node",
      "id": 2844722223,
      "lat": 40.741035,
      "lon": -73.9032342
    },
    {
      "type": "node",
      "id": 2844722225,
      "lat": 40.7410411,
      "lon": -73.9030257
    },
    {
      "type": "node",
      "id": 2844722226,
      "lat": 40.7410425,
      "lon": -73.9032085
    },
    {
      "type": "node",
      "id": 2844722227,
      "lat": 40.7410533,
      "lon": -73.9030487
    },
    {
      "type": "node",
      "id": 2844722229,
      "lat": 40.7410613,
      "lon": -73.9030748
    },
    {
      "type": "node",
      "id": 2844722230,
      "lat": 40.741063,
      "lon": -73.9031309
    },
    {
      "type": "node",
      "id": 2844722231,
      "lat": 40.7410646,
      "lon": -73.9031027
    },
    {
      "type": "node",
      "id": 2844722234,
      "lat": 40.7410878,
      "lon": -73.9032238
    },
    {
      "type": "node",
      "id": 2844722235,
      "lat": 40.7411043,
      "lon": -73.9036285
    },
    {
      "type": "node",
      "id": 2844722239,
      "lat": 40.7411207,
      "lon": -73.9037724
    },
    {
      "type": "node",
      "id": 2844722240,
      "lat": 40.7411332,
      "lon": -73.9036228
    },
    {
      "type": "node",
      "id": 2844722243,
      "lat": 40.7411472,
      "lon": -73.9043208
    },
    {
      "type": "node",
      "id": 2844722245,
      "lat": 40.7411511,
      "lon": -73.9037664
    },
    {
      "type": "node",
      "id": 2844722246,
      "lat": 40.7411528,
      "lon": -73.90437
    },
    {
      "type": "node",
      "id": 2844722250,
      "lat": 40.7412127,
      "lon": -73.9043079
    },
    {
      "type": "node",
      "id": 2846037758,
      "lat": 40.7351544,
      "lon": -73.8744046
    },
    {
      "type": "node",
      "id": 2846037759,
      "lat": 40.7351544,
      "lon": -73.8744283
    },
    {
      "type": "node",
      "id": 2846037761,
      "lat": 40.735156,
      "lon": -73.8744756
    },
    {
      "type": "node",
      "id": 2846037762,
      "lat": 40.7351561,
      "lon": -73.8743573
    },
    {
      "type": "node",
      "id": 2846037763,
      "lat": 40.7351576,
      "lon": -73.8744992
    },
    {
      "type": "node",
      "id": 2846037764,
      "lat": 40.7351601,
      "lon": -73.8743103
    },
    {
      "type": "node",
      "id": 2846037765,
      "lat": 40.7351625,
      "lon": -73.8745462
    },
    {
      "type": "node",
      "id": 2846037766,
      "lat": 40.7351629,
      "lon": -73.8742869
    },
    {
      "type": "node",
      "id": 2846037767,
      "lat": 40.7351658,
      "lon": -73.8745694
    },
    {
      "type": "node",
      "id": 2846037768,
      "lat": 40.7351701,
      "lon": -73.8742405
    },
    {
      "type": "node",
      "id": 2846037769,
      "lat": 40.735174,
      "lon": -73.8746156
    },
    {
      "type": "node",
      "id": 2846037770,
      "lat": 40.7351789,
      "lon": -73.8746384
    },
    {
      "type": "node",
      "id": 2846037771,
      "lat": 40.7351796,
      "lon": -73.8741948
    },
    {
      "type": "node",
      "id": 2846037773,
      "lat": 40.7351851,
      "lon": -73.8741722
    },
    {
      "type": "node",
      "id": 2846037775,
      "lat": 40.7351903,
      "lon": -73.8746833
    },
    {
      "type": "node",
      "id": 2846037778,
      "lat": 40.7351976,
      "lon": -73.8741278
    },
    {
      "type": "node",
      "id": 2846037780,
      "lat": 40.7352037,
      "lon": -73.8747272
    },
    {
      "type": "node",
      "id": 2846037781,
      "lat": 40.7352047,
      "lon": -73.874106
    },
    {
      "type": "node",
      "id": 2846037786,
      "lat": 40.7352193,
      "lon": -73.8747699
    },
    {
      "type": "node",
      "id": 2846037787,
      "lat": 40.7352204,
      "lon": -73.8740634
    },
    {
      "type": "node",
      "id": 2846037789,
      "lat": 40.7352278,
      "lon": -73.8747908
    },
    {
      "type": "node",
      "id": 2846037791,
      "lat": 40.7352367,
      "lon": -73.8748114
    },
    {
      "type": "node",
      "id": 2846037794,
      "lat": 40.735238,
      "lon": -73.8740221
    },
    {
      "type": "node",
      "id": 2846037798,
      "lat": 40.7352561,
      "lon": -73.8748513
    },
    {
      "type": "node",
      "id": 2846037799,
      "lat": 40.7352575,
      "lon": -73.8739823
    },
    {
      "type": "node",
      "id": 2846037904,
      "lat": 40.7352774,
      "lon": -73.8748895
    },
    {
      "type": "node",
      "id": 2846037905,
      "lat": 40.7352788,
      "lon": -73.8739441
    },
    {
      "type": "node",
      "id": 2846037906,
      "lat": 40.7352887,
      "lon": -73.874908
    },
    {
      "type": "node",
      "id": 2846037909,
      "lat": 40.735302,
      "lon": -73.8739078
    },
    {
      "type": "node",
      "id": 2846037915,
      "lat": 40.7353125,
      "lon": -73.8749435
    },
    {
      "type": "node",
      "id": 2846037917,
      "lat": 40.735325,
      "lon": -73.8749605
    },
    {
      "type": "node",
      "id": 2846037918,
      "lat": 40.7353267,
      "lon": -73.8738734
    },
    {
      "type": "node",
      "id": 2846037923,
      "lat": 40.7353512,
      "lon": -73.874993
    },
    {
      "type": "node",
      "id": 2846037924,
      "lat": 40.735353,
      "lon": -73.873841
    },
    {
      "type": "node",
      "id": 2846037930,
      "lat": 40.7353789,
      "lon": -73.8750233
    },
    {
      "type": "node",
      "id": 2846037931,
      "lat": 40.7353808,
      "lon": -73.8738109
    },
    {
      "type": "node",
      "id": 2846037934,
      "lat": 40.7353933,
      "lon": -73.8750376
    },
    {
      "type": "node",
      "id": 2846037935,
      "lat": 40.7353952,
      "lon": -73.8737967
    },
    {
      "type": "node",
      "id": 2846037937,
      "lat": 40.73541,
      "lon": -73.8737831
    },
    {
      "type": "node",
      "id": 2846037941,
      "lat": 40.735423,
      "lon": -73.8750644
    },
    {
      "type": "node",
      "id": 2846037945,
      "lat": 40.7354404,
      "lon": -73.8737577
    },
    {
      "type": "node",
      "id": 2846037947,
      "lat": 40.7354539,
      "lon": -73.8750887
    },
    {
      "type": "node",
      "id": 2846037950,
      "lat": 40.7354698,
      "lon": -73.8750999
    },
    {
      "type": "node",
      "id": 2846037951,
      "lat": 40.7354719,
      "lon": -73.8737348
    },
    {
      "type": "node",
      "id": 2846037952,
      "lat": 40.7354881,
      "lon": -73.8737243
    },
    {
      "type": "node",
      "id": 2846037953,
      "lat": 40.7355023,
      "lon": -73.8751204
    },
    {
      "type": "node",
      "id": 2846037955,
      "lat": 40.7355189,
      "lon": -73.8751296
    },
    {
      "type": "node",
      "id": 2846037956,
      "lat": 40.7355203,
      "lon": -73.8734504
    },
    {
      "type": "node",
      "id": 2846037957,
      "lat": 40.7355204,
      "lon": -73.8734394
    },
    {
      "type": "node",
      "id": 2846037958,
      "lat": 40.735521,
      "lon": -73.8734634
    },
    {
      "type": "node",
      "id": 2846037959,
      "lat": 40.7355211,
      "lon": -73.8737053
    },
    {
      "type": "node",
      "id": 2846037960,
      "lat": 40.7355223,
      "lon": -73.8734174
    },
    {
      "type": "node",
      "id": 2846037961,
      "lat": 40.7355234,
      "lon": -73.8734833
    },
    {
      "type": "node",
      "id": 2846037962,
      "lat": 40.7355255,
      "lon": -73.873494
    },
    {
      "type": "node",
      "id": 2846037963,
      "lat": 40.7355263,
      "lon": -73.8733959
    },
    {
      "type": "node",
      "id": 2846037964,
      "lat": 40.7355292,
      "lon": -73.8733854
    },
    {
      "type": "node",
      "id": 2846037965,
      "lat": 40.7355314,
      "lon": -73.8735146
    },
    {
      "type": "node",
      "id": 2846037966,
      "lat": 40.7355325,
      "lon": -73.8733752
    },
    {
      "type": "node",
      "id": 2846037967,
      "lat": 40.7355357,
      "lon": -73.8751382
    },
    {
      "type": "node",
      "id": 2846037968,
      "lat": 40.7355392,
      "lon": -73.873534
    },
    {
      "type": "node",
      "id": 2846037969,
      "lat": 40.7355407,
      "lon": -73.8733559
    },
    {
      "type": "node",
      "id": 2846037970,
      "lat": 40.7355439,
      "lon": -73.8735431
    },
    {
      "type": "node",
      "id": 2846037971,
      "lat": 40.735549,
      "lon": -73.8735518
    },
    {
      "type": "node",
      "id": 2846037972,
      "lat": 40.7355508,
      "lon": -73.8733381
    },
    {
      "type": "node",
      "id": 2846037973,
      "lat": 40.7355549,
      "lon": -73.8736891
    },
    {
      "type": "node",
      "id": 2846037974,
      "lat": 40.7355564,
      "lon": -73.8733299
    },
    {
      "type": "node",
      "id": 2846037975,
      "lat": 40.7355605,
      "lon": -73.8735677
    },
    {
      "type": "node",
      "id": 2846037976,
      "lat": 40.7355689,
      "lon": -73.8733152
    },
    {
      "type": "node",
      "id": 2846037977,
      "lat": 40.7355698,
      "lon": -73.8751532
    },
    {
      "type": "node",
      "id": 2846037978,
      "lat": 40.7355735,
      "lon": -73.8735814
    },
    {
      "type": "node",
      "id": 2846037979,
      "lat": 40.7355757,
      "lon": -73.8733087
    },
    {
      "type": "node",
      "id": 2846037980,
      "lat": 40.7355805,
      "lon": -73.8735874
    },
    {
      "type": "node",
      "id": 2846037981,
      "lat": 40.7355828,
      "lon": -73.8733028
    },
    {
      "type": "node",
      "id": 2846037982,
      "lat": 40.7355872,
      "lon": -73.8751597
    },
    {
      "type": "node",
      "id": 2846037985,
      "lat": 40.7355895,
      "lon": -73.8736756
    },
    {
      "type": "node",
      "id": 2846037990,
      "lat": 40.7355953,
      "lon": -73.8735973
    },
    {
      "type": "node",
      "id": 2846037991,
      "lat": 40.7355978,
      "lon": -73.8732929
    },
    {
      "type": "node",
      "id": 2846037995,
      "lat": 40.735603,
      "lon": -73.8736013
    },
    {
      "type": "node",
      "id": 2846037999,
      "lat": 40.7356136,
      "lon": -73.8732858
    },
    {
      "type": "node",
      "id": 2846038000,
      "lat": 40.7356191,
      "lon": -73.8736071
    },
    {
      "type": "node",
      "id": 2846038002,
      "lat": 40.7356222,
      "lon": -73.8751705
    },
    {
      "type": "node",
      "id": 2846038003,
      "lat": 40.7356246,
      "lon": -73.873665
    },
    {
      "type": "node",
      "id": 2846038005,
      "lat": 40.7356273,
      "lon": -73.8736089
    },
    {
      "type": "node",
      "id": 2846038006,
      "lat": 40.73563,
      "lon": -73.8732815
    },
    {
      "type": "node",
      "id": 2846038008,
      "lat": 40.7356356,
      "lon": -73.8736099
    },
    {
      "type": "node",
      "id": 2846038010,
      "lat": 40.7356383,
      "lon": -73.8732805
    },
    {
      "type": "node",
      "id": 2846038011,
      "lat": 40.7356423,
      "lon": -73.8736607
    },
    {
      "type": "node",
      "id": 2846038015,
      "lat": 40.7356522,
      "lon": -73.8736099
    },
    {
      "type": "node",
      "id": 2846038016,
      "lat": 40.735655,
      "lon": -73.8732806
    },
    {
      "type": "node",
      "id": 2846038018,
      "lat": 40.7356577,
      "lon": -73.8751785
    },
    {
      "type": "node",
      "id": 2846038021,
      "lat": 40.7356683,
      "lon": -73.873607
    },
    {
      "type": "node",
      "id": 2846038023,
      "lat": 40.7356714,
      "lon": -73.8732838
    },
    {
      "type": "node",
      "id": 2846038025,
      "lat": 40.7356756,
      "lon": -73.8751814
    },
    {
      "type": "node",
      "id": 2846038026,
      "lat": 40.7356769,
      "lon": -73.8736042
    },
    {
      "type": "node",
      "id": 2846038028,
      "lat": 40.735678,
      "lon": -73.8736544
    },
    {
      "type": "node",
      "id": 2846038030,
      "lat": 40.7356848,
      "lon": -73.8736009
    },
    {
      "type": "node",
      "id": 2846038032,
      "lat": 40.7356873,
      "lon": -73.8732901
    },
    {
      "type": "node",
      "id": 2846038034,
      "lat": 40.7356936,
      "lon": -73.8751836
    },
    {
      "type": "node",
      "id": 2846038037,
      "lat": 40.7357002,
      "lon": -73.8735922
    },
    {
      "type": "node",
      "id": 2846038038,
      "lat": 40.7357023,
      "lon": -73.8732993
    },
    {
      "type": "node",
      "id": 2846038039,
      "lat": 40.7357067,
      "lon": -73.8736078
    },
    {
      "type": "node",
      "id": 2846038042,
      "lat": 40.7357112,
      "lon": -73.8736245
    },
    {
      "type": "node",
      "id": 2846038044,
      "lat": 40.7357136,
      "lon": -73.873642
    },
    {
      "type": "node",
      "id": 2846038045,
      "lat": 40.7357139,
      "lon": -73.8736509
    },
    {
      "type": "node",
      "id": 2846038046,
      "lat": 40.7357163,
      "lon": -73.8733111
    },
    {
      "type": "node",
      "id": 2846038049,
      "lat": 40.7357289,
      "lon": -73.8733253
    },
    {
      "type": "node",
      "id": 2846038050,
      "lat": 40.7357296,
      "lon": -73.8751858
    },
    {
      "type": "node",
      "id": 2846038054,
      "lat": 40.73574,
      "lon": -73.8733417
    },
    {
      "type": "node",
      "id": 2846038057,
      "lat": 40.7357476,
      "lon": -73.8751858
    },
    {
      "type": "node",
      "id": 2846038059,
      "lat": 40.7357492,
      "lon": -73.8733599
    },
    {
      "type": "node",
      "id": 2846038061,
      "lat": 40.7357565,
      "lon": -73.8733796
    },
    {
      "type": "node",
      "id": 2846038065,
      "lat": 40.7357594,
      "lon": -73.8733899
    },
    {
      "type": "node",
      "id": 2846038066,
      "lat": 40.7357612,
      "lon": -73.8735461
    },
    {
      "type": "node",
      "id": 2846038068,
      "lat": 40.7357635,
      "lon": -73.8734112
    },
    {
      "type": "node",
      "id": 2846038070,
      "lat": 40.7357641,
      "lon": -73.873495
    },
    {
      "type": "node",
      "id": 2846038072,
      "lat": 40.7357647,
      "lon": -73.873422
    },
    {
      "type": "node",
      "id": 2846038073,
      "lat": 40.7357654,
      "lon": -73.873444
    },
    {
      "type": "node",
      "id": 2846038080,
      "lat": 40.7357834,
      "lon": -73.8735483
    },
    {
      "type": "node",
      "id": 2846038081,
      "lat": 40.7357836,
      "lon": -73.8751836
    },
    {
      "type": "node",
      "id": 2846038082,
      "lat": 40.7357847,
      "lon": -73.8734659
    },
    {
      "type": "node",
      "id": 2846038083,
      "lat": 40.7357852,
      "lon": -73.8734438
    },
    {
      "type": "node",
      "id": 2846038084,
      "lat": 40.7357863,
      "lon": -73.8734968
    },
    {
      "type": "node",
      "id": 2846038085,
      "lat": 40.7357865,
      "lon": -73.8734879
    },
    {
      "type": "node",
      "id": 2846038086,
      "lat": 40.7357879,
      "lon": -73.8734219
    },
    {
      "type": "node",
      "id": 2846038087,
      "lat": 40.73579,
      "lon": -73.8734112
    },
    {
      "type": "node",
      "id": 2846038088,
      "lat": 40.7357959,
      "lon": -73.8733904
    },
    {
      "type": "node",
      "id": 2846038091,
      "lat": 40.7358015,
      "lon": -73.8751814
    },
    {
      "type": "node",
      "id": 2846038092,
      "lat": 40.7358041,
      "lon": -73.8733701
    },
    {
      "type": "node",
      "id": 2846038096,
      "lat": 40.735819,
      "lon": -73.8733445
    },
    {
      "type": "node",
      "id": 2846038097,
      "lat": 40.7358228,
      "lon": -73.8736572
    },
    {
      "type": "node",
      "id": 2846038098,
      "lat": 40.7358234,
      "lon": -73.8736491
    },
    {
      "type": "node",
      "id": 2846038099,
      "lat": 40.7358264,
      "lon": -73.8736333
    },
    {
      "type": "node",
      "id": 2846038100,
      "lat": 40.7358288,
      "lon": -73.8736258
    },
    {
      "type": "node",
      "id": 2846038101,
      "lat": 40.7358312,
      "lon": -73.8733293
    },
    {
      "type": "node",
      "id": 2846038102,
      "lat": 40.7358318,
      "lon": -73.8736186
    },
    {
      "type": "node",
      "id": 2846038103,
      "lat": 40.7358372,
      "lon": -73.8751748
    },
    {
      "type": "node",
      "id": 2846038104,
      "lat": 40.7358379,
      "lon": -73.8733225
    },
    {
      "type": "node",
      "id": 2846038105,
      "lat": 40.7358392,
      "lon": -73.8736056
    },
    {
      "type": "node",
      "id": 2846038106,
      "lat": 40.7358521,
      "lon": -73.8733108
    },
    {
      "type": "node",
      "id": 2846038109,
      "lat": 40.7358576,
      "lon": -73.8736169
    },
    {
      "type": "node",
      "id": 2846038110,
      "lat": 40.7358584,
      "lon": -73.8736658
    },
    {
      "type": "node",
      "id": 2846038111,
      "lat": 40.7358673,
      "lon": -73.8733017
    },
    {
      "type": "node",
      "id": 2846038112,
      "lat": 40.7358715,
      "lon": -73.8736217
    },
    {
      "type": "node",
      "id": 2846038113,
      "lat": 40.7358725,
      "lon": -73.8751654
    },
    {
      "type": "node",
      "id": 2846038114,
      "lat": 40.7358834,
      "lon": -73.8732953
    },
    {
      "type": "node",
      "id": 2846038115,
      "lat": 40.7358864,
      "lon": -73.8736243
    },
    {
      "type": "node",
      "id": 2846038116,
      "lat": 40.7358899,
      "lon": -73.8751596
    },
    {
      "type": "node",
      "id": 2846038117,
      "lat": 40.7358916,
      "lon": -73.8732931
    },
    {
      "type": "node",
      "id": 2846038119,
      "lat": 40.7358935,
      "lon": -73.8736773
    },
    {
      "type": "node",
      "id": 2846038121,
      "lat": 40.7359082,
      "lon": -73.873291
    },
    {
      "type": "node",
      "id": 2846038122,
      "lat": 40.73591,
      "lon": -73.8736238
    },
    {
      "type": "node",
      "id": 2846038124,
      "lat": 40.7359244,
      "lon": -73.8751459
    },
    {
      "type": "node",
      "id": 2846038125,
      "lat": 40.7359249,
      "lon": -73.8732918
    },
    {
      "type": "node",
      "id": 2846038126,
      "lat": 40.7359281,
      "lon": -73.8736916
    },
    {
      "type": "node",
      "id": 2846038127,
      "lat": 40.7359342,
      "lon": -73.8736182
    },
    {
      "type": "node",
      "id": 2846038128,
      "lat": 40.7359413,
      "lon": -73.8732955
    },
    {
      "type": "node",
      "id": 2846038129,
      "lat": 40.7359494,
      "lon": -73.8732984
    },
    {
      "type": "node",
      "id": 2846038130,
      "lat": 40.7359506,
      "lon": -73.8751091
    },
    {
      "type": "node",
      "id": 2846038131,
      "lat": 40.735958,
      "lon": -73.8736076
    },
    {
      "type": "node",
      "id": 2846038132,
      "lat": 40.7359582,
      "lon": -73.8751294
    },
    {
      "type": "node",
      "id": 2846038134,
      "lat": 40.7359618,
      "lon": -73.8737087
    },
    {
      "type": "node",
      "id": 2846038135,
      "lat": 40.735965,
      "lon": -73.8733063
    },
    {
      "type": "node",
      "id": 2846038136,
      "lat": 40.7359724,
      "lon": -73.8733113
    },
    {
      "type": "node",
      "id": 2846038138,
      "lat": 40.7359796,
      "lon": -73.8733169
    },
    {
      "type": "node",
      "id": 2846038139,
      "lat": 40.7359804,
      "lon": -73.8735925
    },
    {
      "type": "node",
      "id": 2846038141,
      "lat": 40.735993,
      "lon": -73.8733299
    },
    {
      "type": "node",
      "id": 2846038142,
      "lat": 40.7359948,
      "lon": -73.8737285
    },
    {
      "type": "node",
      "id": 2846038143,
      "lat": 40.7359992,
      "lon": -73.8733373
    },
    {
      "type": "node",
      "id": 2846038144,
      "lat": 40.7359996,
      "lon": -73.8750773
    },
    {
      "type": "node",
      "id": 2846038145,
      "lat": 40.7360004,
      "lon": -73.8735736
    },
    {
      "type": "node",
      "id": 2846038146,
      "lat": 40.7360077,
      "lon": -73.8750988
    },
    {
      "type": "node",
      "id": 2846038147,
      "lat": 40.7360104,
      "lon": -73.8733536
    },
    {
      "type": "node",
      "id": 2846038148,
      "lat": 40.7360109,
      "lon": -73.8737394
    },
    {
      "type": "node",
      "id": 2846038149,
      "lat": 40.736012,
      "lon": -73.8735592
    },
    {
      "type": "node",
      "id": 2846038150,
      "lat": 40.7360154,
      "lon": -73.8733625
    },
    {
      "type": "node",
      "id": 2846038151,
      "lat": 40.7360169,
      "lon": -73.8735501
    },
    {
      "type": "node",
      "id": 2846038152,
      "lat": 40.7360236,
      "lon": -73.8750873
    },
    {
      "type": "node",
      "id": 2846038153,
      "lat": 40.736024,
      "lon": -73.8733814
    },
    {
      "type": "node",
      "id": 2846038154,
      "lat": 40.7360251,
      "lon": -73.8735309
    },
    {
      "type": "node",
      "id": 2846038155,
      "lat": 40.7360275,
      "lon": -73.8733914
    },
    {
      "type": "node",
      "id": 2846038156,
      "lat": 40.7360285,
      "lon": -73.8735207
    },
    {
      "type": "node",
      "id": 2846038158,
      "lat": 40.7360331,
      "lon": -73.8734122
    },
    {
      "type": "node",
      "id": 2846038159,
      "lat": 40.7360338,
      "lon": -73.8734997
    },
    {
      "type": "node",
      "id": 2846038160,
      "lat": 40.7360356,
      "lon": -73.8734889
    },
    {
      "type": "node",
      "id": 2846038161,
      "lat": 40.7360366,
      "lon": -73.8734338
    },
    {
      "type": "node",
      "id": 2846038162,
      "lat": 40.7360369,
      "lon": -73.8734779
    },
    {
      "type": "node",
      "id": 2846038163,
      "lat": 40.7360378,
      "lon": -73.8734558
    },
    {
      "type": "node",
      "id": 2846038164,
      "lat": 40.7360423,
      "lon": -73.8737631
    },
    {
      "type": "node",
      "id": 2846038165,
      "lat": 40.7360545,
      "lon": -73.8750626
    },
    {
      "type": "node",
      "id": 2846038166,
      "lat": 40.7360575,
      "lon": -73.873776
    },
    {
      "type": "node",
      "id": 2846038168,
      "lat": 40.7360842,
      "lon": -73.8750354
    },
    {
      "type": "node",
      "id": 2846038169,
      "lat": 40.7360871,
      "lon": -73.8738034
    },
    {
      "type": "node",
      "id": 2846038170,
      "lat": 40.7360986,
      "lon": -73.8750209
    },
    {
      "type": "node",
      "id": 2846038171,
      "lat": 40.7361014,
      "lon": -73.873818
    },
    {
      "type": "node",
      "id": 2846038172,
      "lat": 40.7361262,
      "lon": -73.8749901
    },
    {
      "type": "node",
      "id": 2846038173,
      "lat": 40.7361289,
      "lon": -73.873849
    },
    {
      "type": "node",
      "id": 2846038177,
      "lat": 40.7361524,
      "lon": -73.8749572
    },
    {
      "type": "node",
      "id": 2846038178,
      "lat": 40.7361549,
      "lon": -73.8738821
    },
    {
      "type": "node",
      "id": 2846038183,
      "lat": 40.7361769,
      "lon": -73.8749222
    },
    {
      "type": "node",
      "id": 2846038184,
      "lat": 40.7361793,
      "lon": -73.8739173
    },
    {
      "type": "node",
      "id": 2846038187,
      "lat": 40.7361886,
      "lon": -73.874904
    },
    {
      "type": "node",
      "id": 2846038188,
      "lat": 40.7361909,
      "lon": -73.8739356
    },
    {
      "type": "node",
      "id": 2846038191,
      "lat": 40.736202,
      "lon": -73.8739544
    },
    {
      "type": "node",
      "id": 2846038194,
      "lat": 40.7362106,
      "lon": -73.8748662
    },
    {
      "type": "node",
      "id": 2846038196,
      "lat": 40.7362229,
      "lon": -73.8739932
    },
    {
      "type": "node",
      "id": 2846038199,
      "lat": 40.7362308,
      "lon": -73.8748267
    },
    {
      "type": "node",
      "id": 2846038201,
      "lat": 40.7362327,
      "lon": -73.8740133
    },
    {
      "type": "node",
      "id": 2846038203,
      "lat": 40.7362401,
      "lon": -73.8748063
    },
    {
      "type": "node",
      "id": 2846038206,
      "lat": 40.7362507,
      "lon": -73.8740545
    },
    {
      "type": "node",
      "id": 2846038208,
      "lat": 40.7362574,
      "lon": -73.8747645
    },
    {
      "type": "node",
      "id": 2846038211,
      "lat": 40.7362668,
      "lon": -73.8740972
    },
    {
      "type": "node",
      "id": 2846038215,
      "lat": 40.7362727,
      "lon": -73.8747213
    },
    {
      "type": "node",
      "id": 2846038216,
      "lat": 40.7362741,
      "lon": -73.874119
    },
    {
      "type": "node",
      "id": 2846038221,
      "lat": 40.7362796,
      "lon": -73.8746993
    },
    {
      "type": "node",
      "id": 2846038228,
      "lat": 40.7362872,
      "lon": -73.8741634
    },
    {
      "type": "node",
      "id": 2846038231,
      "lat": 40.7362918,
      "lon": -73.8746545
    },
    {
      "type": "node",
      "id": 2846038236,
      "lat": 40.7362971,
      "lon": -73.8746317
    },
    {
      "type": "node",
      "id": 2846038237,
      "lat": 40.7362981,
      "lon": -73.8742088
    },
    {
      "type": "node",
      "id": 2846038241,
      "lat": 40.7363027,
      "lon": -73.8742318
    },
    {
      "type": "node",
      "id": 2846038243,
      "lat": 40.7363061,
      "lon": -73.8745856
    },
    {
      "type": "node",
      "id": 2846038244,
      "lat": 40.7363097,
      "lon": -73.8745623
    },
    {
      "type": "node",
      "id": 2846038245,
      "lat": 40.7363104,
      "lon": -73.8742783
    },
    {
      "type": "node",
      "id": 2846038248,
      "lat": 40.7363134,
      "lon": -73.8743018
    },
    {
      "type": "node",
      "id": 2846038250,
      "lat": 40.7363154,
      "lon": -73.8745153
    },
    {
      "type": "node",
      "id": 2846038251,
      "lat": 40.7363174,
      "lon": -73.8744916
    },
    {
      "type": "node",
      "id": 2846038253,
      "lat": 40.7363178,
      "lon": -73.874349
    },
    {
      "type": "node",
      "id": 2846038256,
      "lat": 40.7363189,
      "lon": -73.8744679
    },
    {
      "type": "node",
      "id": 2846038257,
      "lat": 40.7363191,
      "lon": -73.8743728
    },
    {
      "type": "node",
      "id": 2846038259,
      "lat": 40.7363201,
      "lon": -73.8744203
    },
    {
      "type": "node",
      "id": 2846027246,
      "lat": 40.7338794,
      "lon": -73.8703929
    },
    {
      "type": "node",
      "id": 5280221072,
      "lat": 40.7338942,
      "lon": -73.8704437
    },
    {
      "type": "node",
      "id": 2486519554,
      "lat": 40.730698,
      "lon": -73.8617279
    },
    {
      "type": "node",
      "id": 2486519561,
      "lat": 40.732698,
      "lon": -73.8628137
    },
    {
      "type": "node",
      "id": 2486519562,
      "lat": 40.7303809,
      "lon": -73.8621785
    },
    {
      "type": "node",
      "id": 2486519570,
      "lat": 40.7323336,
      "lon": -73.8626152
    },
    {
      "type": "node",
      "id": 2486519573,
      "lat": 40.7330104,
      "lon": -73.862969
    },
    {
      "type": "node",
      "id": 2486519595,
      "lat": 40.7326937,
      "lon": -73.8635998
    },
    {
      "type": "node",
      "id": 2486519599,
      "lat": 40.7306248,
      "lon": -73.8616957
    },
    {
      "type": "node",
      "id": 2486519602,
      "lat": 40.7304704,
      "lon": -73.8624572
    },
    {
      "type": "node",
      "id": 2486519604,
      "lat": 40.7336774,
      "lon": -73.8640987
    },
    {
      "type": "node",
      "id": 2486519623,
      "lat": 40.7328645,
      "lon": -73.8634657
    },
    {
      "type": "node",
      "id": 2486519634,
      "lat": 40.7329134,
      "lon": -73.8637278
    },
    {
      "type": "node",
      "id": 2486519636,
      "lat": 40.7321126,
      "lon": -73.863294
    },
    {
      "type": "node",
      "id": 2486519639,
      "lat": 40.7318809,
      "lon": -73.8631975
    },
    {
      "type": "node",
      "id": 2486519642,
      "lat": 40.7321128,
      "lon": -73.8624242
    },
    {
      "type": "node",
      "id": 2486519643,
      "lat": 40.7328332,
      "lon": -73.8635137
    },
    {
      "type": "node",
      "id": 2486519646,
      "lat": 40.7333703,
      "lon": -73.8622708
    },
    {
      "type": "node",
      "id": 2569979031,
      "lat": 40.7329771,
      "lon": -73.8635248
    },
    {
      "type": "node",
      "id": 2569979035,
      "lat": 40.7332025,
      "lon": -73.8624361
    },
    {
      "type": "node",
      "id": 2569979051,
      "lat": 40.7333167,
      "lon": -73.8624416
    },
    {
      "type": "node",
      "id": 2689614140,
      "lat": 40.7349644,
      "lon": -73.8696442
    },
    {
      "type": "node",
      "id": 2846027267,
      "lat": 40.7341822,
      "lon": -73.8693784
    },
    {
      "type": "node",
      "id": 2846027268,
      "lat": 40.7342077,
      "lon": -73.8693689
    },
    {
      "type": "node",
      "id": 2846027269,
      "lat": 40.7342889,
      "lon": -73.8690847
    },
    {
      "type": "node",
      "id": 2846027274,
      "lat": 40.7343339,
      "lon": -73.8719567
    },
    {
      "type": "node",
      "id": 2846037705,
      "lat": 40.7346709,
      "lon": -73.8720825
    },
    {
      "type": "node",
      "id": 2846037708,
      "lat": 40.7347002,
      "lon": -73.869545
    },
    {
      "type": "node",
      "id": 2846037711,
      "lat": 40.7347775,
      "lon": -73.8692687
    },
    {
      "type": "node",
      "id": 2846037747,
      "lat": 40.7350945,
      "lon": -73.8696925
    },
    {
      "type": "node",
      "id": 2846037757,
      "lat": 40.7349672,
      "lon": -73.8692838
    },
    {
      "type": "node",
      "id": 2846037760,
      "lat": 40.7351738,
      "lon": -73.8697207
    },
    {
      "type": "node",
      "id": 2846037782,
      "lat": 40.7351766,
      "lon": -73.8685595
    },
    {
      "type": "node",
      "id": 2846037793,
      "lat": 40.735247,
      "lon": -73.8697515
    },
    {
      "type": "node",
      "id": 2846037910,
      "lat": 40.73531,
      "lon": -73.8697757
    },
    {
      "type": "node",
      "id": 2846037911,
      "lat": 40.7350419,
      "lon": -73.868492
    },
    {
      "type": "node",
      "id": 2846037921,
      "lat": 40.7353648,
      "lon": -73.8697971
    },
    {
      "type": "node",
      "id": 3221461708,
      "lat": 40.7348608,
      "lon": -73.8670747
    },
    {
      "type": "node",
      "id": 3221461709,
      "lat": 40.7353815,
      "lon": -73.8673483
    },
    {
      "type": "node",
      "id": 3221461711,
      "lat": 40.7351335,
      "lon": -73.8681927
    },
    {
      "type": "node",
      "id": 3221461713,
      "lat": 40.7348933,
      "lon": -73.8692553
    },
    {
      "type": "node",
      "id": 3221461714,
      "lat": 40.7342744,
      "lon": -73.8690575
    },
    {
      "type": "node",
      "id": 3221461715,
      "lat": 40.7348811,
      "lon": -73.869309
    },
    {
      "type": "node",
      "id": 3221571300,
      "lat": 40.7347345,
      "lon": -73.8694223
    },
    {
      "type": "node",
      "id": 3221571301,
      "lat": 40.7342498,
      "lon": -73.8692251
    },
    {
      "type": "node",
      "id": 6219213310,
      "lat": 40.734522,
      "lon": -73.8682202
    },
    {
      "type": "node",
      "id": 6219213311,
      "lat": 40.7350382,
      "lon": -73.8708729
    },
    {
      "type": "node",
      "id": 6219213312,
      "lat": 40.7341254,
      "lon": -73.8712394
    },
    {
      "type": "node",
      "id": 2486519617,
      "lat": 40.7341514,
      "lon": -73.8626757
    },
    {
      "type": "node",
      "id": 2799381273,
      "lat": 40.8209006,
      "lon": -73.9296677
    },
    {
      "type": "node",
      "id": 2799381280,
      "lat": 40.8209605,
      "lon": -73.9299252
    },
    {
      "type": "node",
      "id": 2799381286,
      "lat": 40.8210001,
      "lon": -73.9305664
    },
    {
      "type": "node",
      "id": 2799381287,
      "lat": 40.8210237,
      "lon": -73.9298997
    },
    {
      "type": "node",
      "id": 2799381296,
      "lat": 40.8211386,
      "lon": -73.9295758
    },
    {
      "type": "node",
      "id": 2799381701,
      "lat": 40.8211725,
      "lon": -73.9305769
    },
    {
      "type": "node",
      "id": 2799381703,
      "lat": 40.8211735,
      "lon": -73.930549
    },
    {
      "type": "node",
      "id": 2799381724,
      "lat": 40.8215075,
      "lon": -73.9305939
    },
    {
      "type": "node",
      "id": 2799381725,
      "lat": 40.8215082,
      "lon": -73.9305791
    },
    {
      "type": "node",
      "id": 2799381739,
      "lat": 40.8219413,
      "lon": -73.9292625
    },
    {
      "type": "node",
      "id": 2799381741,
      "lat": 40.8220273,
      "lon": -73.9292703
    },
    {
      "type": "node",
      "id": 2799381742,
      "lat": 40.8220283,
      "lon": -73.9292504
    },
    {
      "type": "node",
      "id": 2799381743,
      "lat": 40.8221199,
      "lon": -73.930649
    },
    {
      "type": "node",
      "id": 2799381744,
      "lat": 40.8221231,
      "lon": -73.9305873
    },
    {
      "type": "node",
      "id": 2799381745,
      "lat": 40.8221541,
      "lon": -73.9305901
    },
    {
      "type": "node",
      "id": 2799381746,
      "lat": 40.8221664,
      "lon": -73.9303534
    },
    {
      "type": "node",
      "id": 2799381747,
      "lat": 40.822171,
      "lon": -73.9302638
    },
    {
      "type": "node",
      "id": 2799381748,
      "lat": 40.8222016,
      "lon": -73.9296735
    },
    {
      "type": "node",
      "id": 2799381749,
      "lat": 40.822215,
      "lon": -73.9295873
    },
    {
      "type": "node",
      "id": 2799381750,
      "lat": 40.8222269,
      "lon": -73.929358
    },
    {
      "type": "node",
      "id": 2799381752,
      "lat": 40.8222437,
      "lon": -73.9293596
    },
    {
      "type": "node",
      "id": 2799381753,
      "lat": 40.8222483,
      "lon": -73.9292702
    },
    {
      "type": "node",
      "id": 2799381778,
      "lat": 40.8233695,
      "lon": -73.9306925
    },
    {
      "type": "node",
      "id": 2799381779,
      "lat": 40.8233817,
      "lon": -73.9304762
    },
    {
      "type": "node",
      "id": 2799381780,
      "lat": 40.8233869,
      "lon": -73.9303848
    },
    {
      "type": "node",
      "id": 2799381781,
      "lat": 40.8234076,
      "lon": -73.930729
    },
    {
      "type": "node",
      "id": 2799381782,
      "lat": 40.8234094,
      "lon": -73.9306964
    },
    {
      "type": "node",
      "id": 2799381783,
      "lat": 40.8234211,
      "lon": -73.929777
    },
    {
      "type": "node",
      "id": 2799381784,
      "lat": 40.8234259,
      "lon": -73.9296917
    },
    {
      "type": "node",
      "id": 2799381785,
      "lat": 40.8234609,
      "lon": -73.9290708
    },
    {
      "type": "node",
      "id": 2799381786,
      "lat": 40.8234714,
      "lon": -73.9290718
    },
    {
      "type": "node",
      "id": 2799381787,
      "lat": 40.8234723,
      "lon": -73.9290569
    },
    {
      "type": "node",
      "id": 2799381788,
      "lat": 40.8234993,
      "lon": -73.930738
    },
    {
      "type": "node",
      "id": 2799381789,
      "lat": 40.8235011,
      "lon": -73.9307054
    },
    {
      "type": "node",
      "id": 2799381790,
      "lat": 40.8235674,
      "lon": -73.9290812
    },
    {
      "type": "node",
      "id": 2799381791,
      "lat": 40.8235682,
      "lon": -73.9290662
    },
    {
      "type": "node",
      "id": 2799381792,
      "lat": 40.8237154,
      "lon": -73.9307536
    },
    {
      "type": "node",
      "id": 2799381793,
      "lat": 40.8237169,
      "lon": -73.9307264
    },
    {
      "type": "node",
      "id": 2799381794,
      "lat": 40.8238086,
      "lon": -73.9307627
    },
    {
      "type": "node",
      "id": 2799381795,
      "lat": 40.8238102,
      "lon": -73.9307355
    },
    {
      "type": "node",
      "id": 2799381796,
      "lat": 40.8238567,
      "lon": -73.9291094
    },
    {
      "type": "node",
      "id": 2799381798,
      "lat": 40.8240255,
      "lon": -73.9307805
    },
    {
      "type": "node",
      "id": 2799381799,
      "lat": 40.8240269,
      "lon": -73.9307567
    },
    {
      "type": "node",
      "id": 2799382001,
      "lat": 40.8241168,
      "lon": -73.9307894
    },
    {
      "type": "node",
      "id": 2799382002,
      "lat": 40.8241181,
      "lon": -73.9307656
    },
    {
      "type": "node",
      "id": 2799382006,
      "lat": 40.8243352,
      "lon": -73.930806
    },
    {
      "type": "node",
      "id": 2799382007,
      "lat": 40.8243362,
      "lon": -73.9307869
    },
    {
      "type": "node",
      "id": 2799382008,
      "lat": 40.8244277,
      "lon": -73.9308186
    },
    {
      "type": "node",
      "id": 2799382009,
      "lat": 40.8244873,
      "lon": -73.929572
    },
    {
      "type": "node",
      "id": 2860416789,
      "lat": 40.8225719,
      "lon": -73.8377323
    },
    {
      "type": "node",
      "id": 4281559501,
      "lat": 40.8225055,
      "lon": -73.8364631
    },
    {
      "type": "node",
      "id": 4281559502,
      "lat": 40.8228526,
      "lon": -73.8364765
    },
    {
      "type": "node",
      "id": 4281559508,
      "lat": 40.8240115,
      "lon": -73.8364845
    },
    {
      "type": "node",
      "id": 4281559519,
      "lat": 40.8243099,
      "lon": -73.837375
    },
    {
      "type": "node",
      "id": 4281559520,
      "lat": 40.824314,
      "lon": -73.8387483
    },
    {
      "type": "node",
      "id": 4281559524,
      "lat": 40.8245027,
      "lon": -73.8373858
    },
    {
      "type": "node",
      "id": 4281559526,
      "lat": 40.8246428,
      "lon": -73.8366133
    },
    {
      "type": "node",
      "id": 2860993460,
      "lat": 40.8467171,
      "lon": -73.8438817
    },
    {
      "type": "node",
      "id": 2860993463,
      "lat": 40.8467483,
      "lon": -73.8433837
    },
    {
      "type": "node",
      "id": 2860993466,
      "lat": 40.8467759,
      "lon": -73.84313
    },
    {
      "type": "node",
      "id": 2860993467,
      "lat": 40.8468151,
      "lon": -73.8433055
    },
    {
      "type": "node",
      "id": 2860993468,
      "lat": 40.846845,
      "lon": -73.8433898
    },
    {
      "type": "node",
      "id": 2860993469,
      "lat": 40.8468519,
      "lon": -73.8433146
    },
    {
      "type": "node",
      "id": 2860993470,
      "lat": 40.8470547,
      "lon": -73.8439156
    },
    {
      "type": "node",
      "id": 2860993471,
      "lat": 40.8470584,
      "lon": -73.8438123
    },
    {
      "type": "node",
      "id": 2860993498,
      "lat": 40.8474889,
      "lon": -73.8428533
    },
    {
      "type": "node",
      "id": 2860993500,
      "lat": 40.8475239,
      "lon": -73.8435224
    },
    {
      "type": "node",
      "id": 2860993504,
      "lat": 40.8475391,
      "lon": -73.8435165
    },
    {
      "type": "node",
      "id": 2860993508,
      "lat": 40.8475598,
      "lon": -73.8436093
    },
    {
      "type": "node",
      "id": 2860993511,
      "lat": 40.847579,
      "lon": -73.8432562
    },
    {
      "type": "node",
      "id": 2860993512,
      "lat": 40.8475832,
      "lon": -73.8432678
    },
    {
      "type": "node",
      "id": 2860993522,
      "lat": 40.8476777,
      "lon": -73.8435308
    },
    {
      "type": "node",
      "id": 2810109257,
      "lat": 40.8775881,
      "lon": -73.905131
    },
    {
      "type": "node",
      "id": 2810109289,
      "lat": 40.8778296,
      "lon": -73.9049606
    },
    {
      "type": "node",
      "id": 5130957342,
      "lat": 40.8776118,
      "lon": -73.9055148
    },
    {
      "type": "node",
      "id": 5130957343,
      "lat": 40.8775038,
      "lon": -73.9051979
    },
    {
      "type": "node",
      "id": 5130957344,
      "lat": 40.8771413,
      "lon": -73.9058742
    },
    {
      "type": "node",
      "id": 5130958280,
      "lat": 40.8775339,
      "lon": -73.905174
    },
    {
      "type": "node",
      "id": 5130962680,
      "lat": 40.8769405,
      "lon": -73.9053128
    },
    {
      "type": "node",
      "id": 2810109307,
      "lat": 40.8779492,
      "lon": -73.9048755
    },
    {
      "type": "node",
      "id": 2810109328,
      "lat": 40.8780692,
      "lon": -73.9047926
    },
    {
      "type": "node",
      "id": 5130957341,
      "lat": 40.87792,
      "lon": -73.9043696
    },
    {
      "type": "node",
      "id": 5130957345,
      "lat": 40.8767884,
      "lon": -73.9048873
    },
    {
      "type": "node",
      "id": 5130962681,
      "lat": 40.8780176,
      "lon": -73.9046463
    },
    {
      "type": "node",
      "id": 4011978546,
      "lat": 40.8637484,
      "lon": -73.8292532
    },
    {
      "type": "node",
      "id": 4011978547,
      "lat": 40.8633022,
      "lon": -73.8290494
    },
    {
      "type": "node",
      "id": 4011978548,
      "lat": 40.8630993,
      "lon": -73.8286524
    },
    {
      "type": "node",
      "id": 4011978549,
      "lat": 40.8627666,
      "lon": -73.8285773
    },
    {
      "type": "node",
      "id": 4011978550,
      "lat": 40.8624826,
      "lon": -73.8281159
    },
    {
      "type": "node",
      "id": 4011978551,
      "lat": 40.8627423,
      "lon": -73.8275688
    },
    {
      "type": "node",
      "id": 4011978552,
      "lat": 40.8638458,
      "lon": -73.8265388
    },
    {
      "type": "node",
      "id": 4011978553,
      "lat": 40.8648777,
      "lon": -73.8257505
    },
    {
      "type": "node",
      "id": 4011978554,
      "lat": 40.8652011,
      "lon": -73.8265602
    },
    {
      "type": "node",
      "id": 4011978555,
      "lat": 40.8652693,
      "lon": -73.8266952
    },
    {
      "type": "node",
      "id": 4011978556,
      "lat": 40.8655104,
      "lon": -73.8264709
    },
    {
      "type": "node",
      "id": 4011978557,
      "lat": 40.8658983,
      "lon": -73.8272732
    },
    {
      "type": "node",
      "id": 2870712516,
      "lat": 40.7061039,
      "lon": -73.7961555
    },
    {
      "type": "node",
      "id": 2870712536,
      "lat": 40.7063288,
      "lon": -73.7955502
    },
    {
      "type": "node",
      "id": 2870712581,
      "lat": 40.7067214,
      "lon": -73.7965517
    },
    {
      "type": "node",
      "id": 2870712590,
      "lat": 40.7069463,
      "lon": -73.7959464
    },
    {
      "type": "node",
      "id": 2817044688,
      "lat": 40.7778238,
      "lon": -73.7794217
    },
    {
      "type": "node",
      "id": 2817044689,
      "lat": 40.7795818,
      "lon": -73.7797708
    },
    {
      "type": "node",
      "id": 2817044694,
      "lat": 40.7793113,
      "lon": -73.7757856
    },
    {
      "type": "node",
      "id": 2817044695,
      "lat": 40.7787589,
      "lon": -73.7760539
    },
    {
      "type": "node",
      "id": 2817044687,
      "lat": 40.7801075,
      "lon": -73.7755174
    },
    {
      "type": "node",
      "id": 2817044690,
      "lat": 40.7814848,
      "lon": -73.7759304
    },
    {
      "type": "node",
      "id": 2817044691,
      "lat": 40.7807972,
      "lon": -73.777072
    },
    {
      "type": "node",
      "id": 2817044692,
      "lat": 40.780465,
      "lon": -73.7754638
    },
    {
      "type": "node",
      "id": 2817044693,
      "lat": 40.7806464,
      "lon": -73.7776855
    },
    {
      "type": "node",
      "id": 2817044696,
      "lat": 40.7807574,
      "lon": -73.7755496
    },
    {
      "type": "node",
      "id": 2885521860,
      "lat": 40.7809111,
      "lon": -73.7771998
    }
  ]
}